{
    "links": {
        "self": "http://www.neowsapp.com/rest/v1/neo/3626083?api_key=iIulBulltgU6a56xZRHN4H3l9WmuAYTsLGpBGhQ2"
    },
    "id": "3626083",
    "neo_reference_id": "3626083",
    "name": "(2013 CO35)",
    "designation": "2013 CO35",
    "nasa_jpl_url": "http://ssd.jpl.nasa.gov/sbdb.cgi?sstr=3626083",
    "absolute_magnitude_h": 25.3,
    "estimated_diameter": {
        "kilometers": {
            "estimated_diameter_min": 0.0231502122,
            "estimated_diameter_max": 0.0517654482
        },
        "meters": {
            "estimated_diameter_min": 23.150212221,
            "estimated_diameter_max": 51.7654482198
        },
        "miles": {
            "estimated_diameter_min": 0.0143848705,
            "estimated_diameter_max": 0.0321655483
        },
        "feet": {
            "estimated_diameter_min": 75.9521422633,
            "estimated_diameter_max": 169.8341531374
        }
    },
    "is_potentially_hazardous_asteroid": false,
    "close_approach_data": [
        {
            "close_approach_date": "2013-01-25",
            "close_approach_date_full": "2013-Jan-25 07:17",
            "epoch_date_close_approach": 1359098220000,
            "relative_velocity": {
                "kilometers_per_second": "11.3639163793",
                "kilometers_per_hour": "40910.0989656348",
                "miles_per_hour": "25419.9445489524"
            },
            "miss_distance": {
                "astronomical": "0.0422718582",
                "lunar": "16.4437528398",
                "kilometers": "6323779.947662034",
                "miles": "3929414.6500987092"
            },
            "orbiting_body": "Earth"
        },
        {
            "close_approach_date": "2110-02-13",
            "close_approach_date_full": "2110-Feb-13 15:42",
            "epoch_date_close_approach": 4421749320000,
            "relative_velocity": {
                "kilometers_per_second": "18.777050265",
                "kilometers_per_hour": "67597.3809538369",
                "miles_per_hour": "42002.3837376772"
            },
            "miss_distance": {
                "astronomical": "0.2780472653",
                "lunar": "108.1603862017",
                "kilometers": "41595278.648204911",
                "miles": "25846107.6520573318"
            },
            "orbiting_body": "Earth"
        }
    ],
    "orbital_data": {
        "orbit_id": "5",
        "orbit_determination_date": "2019-07-17 06:09:48",
        "first_observation_date": "2013-02-01",
        "last_observation_date": "2013-02-08",
        "data_arc_in_days": 7,
        "observations_used": 13,
        "orbit_uncertainty": "8",
        "minimum_orbit_intersection": ".039362",
        "jupiter_tisserand_invariant": "4.024",
        "epoch_osculation": "2456328.5",
        "eccentricity": ".4800053278489898",
        "semi_major_axis": "1.719108189643207",
        "inclination": "8.474040642474968",
        "ascending_node_longitude": "317.3746015280184",
        "orbital_period": "823.29075907498",
        "perihelion_distance": ".8939270994656364",
        "perihelion_argument": "117.978326447825",
        "aphelion_distance": "2.544289279820779",
        "perihelion_time": "2456280.382546702883",
        "mean_anomaly": "21.04029833448491",
        "mean_motion": ".4372695746087119",
        "equinox": "J2000",
        "orbit_class": {
            "orbit_class_type": "APO",
            "orbit_class_description": "Near-Earth asteroid orbits which cross the Earth’s orbit similar to that of 1862 Apollo",
            "orbit_class_range": "a (semi-major axis) > 1.0 AU; q (perihelion) < 1.017 AU"
        }
    },
    "is_sentry_object": false
}